[{"OBJECT_NAME":"STARLINK-32754","OBJECT_ID":"2025-004S","EPOCH":"2026-03-09T11:06:41.216256","MEAN_MOTION":15.27589937,"ECCENTRICITY":0.00017795,"INCLINATION":42.9981,"RA_OF_ASC_NODE":221.1752,"ARG_OF_PERICENTER":292.616,"MEAN_ANOMALY":67.4503,"EPHEMERIS_TYPE":0,"CLASSIFICATION_TYPE":"U","NORAD_CAT_ID":62527,"ELEMENT_SET_NO":999,"REV_AT_EPOCH":6547,"BSTAR":0.0011224251,"MEAN_MOTION_DOT":0.00030763,"MEAN_MOTION_DDOT":0},{"OBJECT_NAME":"SL-19 R\/B","OBJECT_ID":"2011-005B","EPOCH":"2026-03-09T21:50:35.538720","MEAN_MOTION":15.57556472,"ECCENTRICITY":0.01260184,"INCLINATION":99.3438,"RA_OF_ASC_NODE":178.5978,"ARG_OF_PERICENTER":174.8144,"MEAN_ANOMALY":185.4445,"EPHEMERIS_TYPE":0,"CLASSIFICATION_TYPE":"U","NORAD_CAT_ID":37363,"ELEMENT_SET_NO":999,"REV_AT_EPOCH":82354,"BSTAR":0.00054776137,"MEAN_MOTION_DOT":0.00058791,"MEAN_MOTION_DDOT":0}]
